OBJECT C                
1 57582U 23117C   24276.15453566  .00020382  00000+0  98190-3 0  9991
2 57582  97.4773 346.8841 0008861 281.3646  78.6592 15.18734127 63402
